ONEWEB-0522             
1 54140U 22138AD  25244.28050202  .00000065  00000+0  13002-3 0  9995
2 54140  87.9276   2.3772 0001717  97.2037 262.9291 13.19725547138704
ONEWEB-0523             
1 54141U 22138AE  25244.24560245  .00000040  00000+0  66782-4 0  9992
2 54141  87.9292 332.0375 0002443 117.1508 242.9875 13.20770640141163
ONEWEB-0524             
1 54142U 22138AF  25244.23454744  .00000070  00000+0  13988-3 0  9990
2 54142  87.9291 332.0405 0001572 129.1259 231.0014 13.20773030141165
ONEWEB-0525             
1 54143U 22138AG  25244.29945216  .00000084  00000+0  17740-3 0  9991
2 54143  87.9280   2.3947 0001605  90.9664 269.1653 13.19726263138727
ONEWEB-0526             
1 54144U 22138AH  25244.25678891  .00000072  00000+0  14813-3 0  9995
2 54144  87.9279   2.3902 0001701  97.4509 262.6817 13.19727955138699
ONEWEB-0529             
1 54145U 22138AJ  25244.25996389  .00000028  00000+0  38722-4 0  9998
2 54145  87.9268   2.4300 0001607  92.5397 267.5919 13.19727575138715
ONEWEB-0531             
1 54146U 22138AK  25244.22032650 -.00000022  00000+0 -85353-4 0  9996
2 54146  87.9284 332.0355 0002238 122.5911 237.5439 13.20773778141168
ONEWEB-0535             
1 54147U 22138AL  25244.29312176  .00000089  00000+0  18887-3 0  9996
2 54147  87.9278   2.3787 0002096 106.7391 253.3972 13.19724115138732
ONEWEB-0536             
1 54148U 22138AM  25244.28345570  .00000106  00000+0  22955-3 0  9991
2 54148  87.9291 332.0698 0002173 128.4799 231.6530 13.20774426141163
ONEWEB-0527             
1 54642U 22166A   25244.16247718 -.00000351  00000+0 -88056-3 0  9991
2 54642  87.9228 301.6772 0001820  97.3790 262.7551 13.21825051133352
ONEWEB-0528             
1 54643U 22166B   25244.16879020 -.00000020  00000+0 -81097-4 0  9991
2 54643  87.9233 301.6780 0001822  95.5531 264.5811 13.21828481133363
ONEWEB-0539             
1 54644U 22166C   25244.20510084  .00000006  00000+0 -18074-4 0  9997
2 54644  87.9225 301.6403 0002111  91.9455 268.1921 13.21826425133362
ONEWEB-0540             
1 54645U 22166D   25244.21152244  .00000005  00000+0 -19877-4 0  9990
2 54645  87.9232 301.6750 0002070  91.7197 268.4174 13.21828338133358
ONEWEB-0542             
1 54646U 22166E   25244.21454200 -.00000013  00000+0 -61989-4 0  9999
2 54646  87.9224 301.6359 0002260  92.3528 267.7865 13.21828013133361
ONEWEB-0545             
1 54647U 22166F   25244.18140854  .00000102  00000+0  21626-3 0  9993
2 54647  87.9229 301.6605 0002360  86.0182 274.1222 13.21829123133326
ONEWEB-0580             
1 54648U 22166G   25244.15462898 -.00000001  00000+0 -34540-4 0  9996
2 54648  87.9230 301.6639 0002286  94.2620 265.8775 13.21827151133364
ONEWEB-0582             
1 54649U 22166H   25244.19718885  .00000073  00000+0  14486-3 0  9994
2 54649  87.9223 301.6506 0002509  93.2007 266.9414 13.21829107133349
