[{"OBJECT_NAME":"ONEWEB-0522","OBJECT_ID":"2022-138AD","EPOCH":"2025-09-01T06:43:55.374528","MEAN_MOTION":13.19725547,"ECCENTRICITY":0.00017176,"INCLINATION":87.9276,"RA_OF_ASC_NODE":2.3772,"ARG_OF_PERICENTER":97.2037,"MEAN_ANOMALY":262.9291,"EPHEMERIS_TYPE":0,"CLASSIFICATION_TYPE":"U","NORAD_CAT_ID":54140,"ELEMENT_SET_NO":999,"REV_AT_EPOCH":13870,"BSTAR":0.0001300194,"MEAN_MOTION_DOT":6.5e-7,"MEAN_MOTION_DDOT":0},{"OBJECT_NAME":"ONEWEB-0523","OBJECT_ID":"2022-138AE","EPOCH":"2025-09-01T05:53:40.051680","MEAN_MOTION":13.2077064,"ECCENTRICITY":0.00024431,"INCLINATION":87.9292,"RA_OF_ASC_NODE":332.0375,"ARG_OF_PERICENTER":117.1508,"MEAN_ANOMALY":242.9875,"EPHEMERIS_TYPE":0,"CLASSIFICATION_TYPE":"U","NORAD_CAT_ID":54141,"ELEMENT_SET_NO":999,"REV_AT_EPOCH":14116,"BSTAR":6.6782414e-5,"MEAN_MOTION_DOT":4.0e-7,"MEAN_MOTION_DDOT":0},{"OBJECT_NAME":"ONEWEB-0524","OBJECT_ID":"2022-138AF","EPOCH":"2025-09-01T05:37:44.898816","MEAN_MOTION":13.2077303,"ECCENTRICITY":0.00015724,"INCLINATION":87.9291,"RA_OF_ASC_NODE":332.0405,"ARG_OF_PERICENTER":129.1259,"MEAN_ANOMALY":231.0014,"EPHEMERIS_TYPE":0,"CLASSIFICATION_TYPE":"U","NORAD_CAT_ID":54142,"ELEMENT_SET_NO":999,"REV_AT_EPOCH":14116,"BSTAR":0.00013988255,"MEAN_MOTION_DOT":7.0e-7,"MEAN_MOTION_DDOT":0},{"OBJECT_NAME":"ONEWEB-0525","OBJECT_ID":"2022-138AG","EPOCH":"2025-09-01T07:11:12.666624","MEAN_MOTION":13.19726263,"ECCENTRICITY":0.00016055,"INCLINATION":87.928,"RA_OF_ASC_NODE":2.3947,"ARG_OF_PERICENTER":90.9664,"MEAN_ANOMALY":269.1653,"EPHEMERIS_TYPE":0,"CLASSIFICATION_TYPE":"U","NORAD_CAT_ID":54143,"ELEMENT_SET_NO":999,"REV_AT_EPOCH":13872,"BSTAR":0.00017740493,"MEAN_MOTION_DOT":8.4e-7,"MEAN_MOTION_DDOT":0},{"OBJECT_NAME":"ONEWEB-0526","OBJECT_ID":"2022-138AH","EPOCH":"2025-09-01T06:09:46.561824","MEAN_MOTION":13.19727955,"ECCENTRICITY":0.00017014,"INCLINATION":87.9279,"RA_OF_ASC_NODE":2.3902,"ARG_OF_PERICENTER":97.4509,"MEAN_ANOMALY":262.6817,"EPHEMERIS_TYPE":0,"CLASSIFICATION_TYPE":"U","NORAD_CAT_ID":54144,"ELEMENT_SET_NO":999,"REV_AT_EPOCH":13869,"BSTAR":0.00014812719,"MEAN_MOTION_DOT":7.2e-7,"MEAN_MOTION_DDOT":0},{"OBJECT_NAME":"ONEWEB-0529","OBJECT_ID":"2022-138AJ","EPOCH":"2025-09-01T06:14:20.880096","MEAN_MOTION":13.19727575,"ECCENTRICITY":0.00016076,"INCLINATION":87.9268,"RA_OF_ASC_NODE":2.43,"ARG_OF_PERICENTER":92.5397,"MEAN_ANOMALY":267.5919,"EPHEMERIS_TYPE":0,"CLASSIFICATION_TYPE":"U","NORAD_CAT_ID":54145,"ELEMENT_SET_NO":999,"REV_AT_EPOCH":13871,"BSTAR":3.8721758e-5,"MEAN_MOTION_DOT":2.8e-7,"MEAN_MOTION_DDOT":0},{"OBJECT_NAME":"ONEWEB-0531","OBJECT_ID":"2022-138AK","EPOCH":"2025-09-01T05:17:16.209600","MEAN_MOTION":13.20773778,"ECCENTRICITY":0.00022383,"INCLINATION":87.9284,"RA_OF_ASC_NODE":332.0355,"ARG_OF_PERICENTER":122.5911,"MEAN_ANOMALY":237.5439,"EPHEMERIS_TYPE":0,"CLASSIFICATION_TYPE":"U","NORAD_CAT_ID":54146,"ELEMENT_SET_NO":999,"REV_AT_EPOCH":14116,"BSTAR":-8.5353227e-5,"MEAN_MOTION_DOT":-2.2e-7,"MEAN_MOTION_DDOT":0},{"OBJECT_NAME":"ONEWEB-0535","OBJECT_ID":"2022-138AL","EPOCH":"2025-09-01T07:02:05.720064","MEAN_MOTION":13.19724115,"ECCENTRICITY":0.00020961,"INCLINATION":87.9278,"RA_OF_ASC_NODE":2.3787,"ARG_OF_PERICENTER":106.7391,"MEAN_ANOMALY":253.3972,"EPHEMERIS_TYPE":0,"CLASSIFICATION_TYPE":"U","NORAD_CAT_ID":54147,"ELEMENT_SET_NO":999,"REV_AT_EPOCH":13873,"BSTAR":0.00018887076,"MEAN_MOTION_DOT":8.9e-7,"MEAN_MOTION_DDOT":0},{"OBJECT_NAME":"ONEWEB-0536","OBJECT_ID":"2022-138AM","EPOCH":"2025-09-01T06:48:10.572480","MEAN_MOTION":13.20774426,"ECCENTRICITY":0.00021737,"INCLINATION":87.9291,"RA_OF_ASC_NODE":332.0698,"ARG_OF_PERICENTER":128.4799,"MEAN_ANOMALY":231.653,"EPHEMERIS_TYPE":0,"CLASSIFICATION_TYPE":"U","NORAD_CAT_ID":54148,"ELEMENT_SET_NO":999,"REV_AT_EPOCH":14116,"BSTAR":0.00022955085,"MEAN_MOTION_DOT":1.06e-6,"MEAN_MOTION_DDOT":0},{"OBJECT_NAME":"ONEWEB-0527","OBJECT_ID":"2022-166A","EPOCH":"2025-09-01T03:53:58.028352","MEAN_MOTION":13.21825051,"ECCENTRICITY":0.00018206,"INCLINATION":87.9228,"RA_OF_ASC_NODE":301.6772,"ARG_OF_PERICENTER":97.379,"MEAN_ANOMALY":262.7551,"EPHEMERIS_TYPE":0,"CLASSIFICATION_TYPE":"U","NORAD_CAT_ID":54642,"ELEMENT_SET_NO":999,"REV_AT_EPOCH":13335,"BSTAR":-0.00088056293,"MEAN_MOTION_DOT":-3.51e-6,"MEAN_MOTION_DDOT":0},{"OBJECT_NAME":"ONEWEB-0528","OBJECT_ID":"2022-166B","EPOCH":"2025-09-01T04:03:03.473280","MEAN_MOTION":13.21828481,"ECCENTRICITY":0.00018225,"INCLINATION":87.9233,"RA_OF_ASC_NODE":301.678,"ARG_OF_PERICENTER":95.5531,"MEAN_ANOMALY":264.5811,"EPHEMERIS_TYPE":0,"CLASSIFICATION_TYPE":"U","NORAD_CAT_ID":54643,"ELEMENT_SET_NO":999,"REV_AT_EPOCH":13336,"BSTAR":-8.1097279e-5,"MEAN_MOTION_DOT":-2.0e-7,"MEAN_MOTION_DDOT":0},{"OBJECT_NAME":"ONEWEB-0539","OBJECT_ID":"2022-166C","EPOCH":"2025-09-01T04:55:20.712576","MEAN_MOTION":13.21826425,"ECCENTRICITY":0.00021112,"INCLINATION":87.9225,"RA_OF_ASC_NODE":301.6403,"ARG_OF_PERICENTER":91.9455,"MEAN_ANOMALY":268.1921,"EPHEMERIS_TYPE":0,"CLASSIFICATION_TYPE":"U","NORAD_CAT_ID":54644,"ELEMENT_SET_NO":999,"REV_AT_EPOCH":13336,"BSTAR":-1.8073844e-5,"MEAN_MOTION_DOT":6.0e-8,"MEAN_MOTION_DDOT":0},{"OBJECT_NAME":"ONEWEB-0540","OBJECT_ID":"2022-166D","EPOCH":"2025-09-01T05:04:35.538816","MEAN_MOTION":13.21828338,"ECCENTRICITY":0.00020703,"INCLINATION":87.9232,"RA_OF_ASC_NODE":301.675,"ARG_OF_PERICENTER":91.7197,"MEAN_ANOMALY":268.4174,"EPHEMERIS_TYPE":0,"CLASSIFICATION_TYPE":"U","NORAD_CAT_ID":54645,"ELEMENT_SET_NO":999,"REV_AT_EPOCH":13335,"BSTAR":-1.9876621e-5,"MEAN_MOTION_DOT":5.0e-8,"MEAN_MOTION_DDOT":0},{"OBJECT_NAME":"ONEWEB-0542","OBJECT_ID":"2022-166E","EPOCH":"2025-09-01T05:08:56.428800","MEAN_MOTION":13.21828013,"ECCENTRICITY":0.00022607,"INCLINATION":87.9224,"RA_OF_ASC_NODE":301.6359,"ARG_OF_PERICENTER":92.3528,"MEAN_ANOMALY":267.7865,"EPHEMERIS_TYPE":0,"CLASSIFICATION_TYPE":"U","NORAD_CAT_ID":54646,"ELEMENT_SET_NO":999,"REV_AT_EPOCH":13336,"BSTAR":-6.1989288e-5,"MEAN_MOTION_DOT":-1.3e-7,"MEAN_MOTION_DDOT":0},{"OBJECT_NAME":"ONEWEB-0545","OBJECT_ID":"2022-166F","EPOCH":"2025-09-01T04:21:13.697856","MEAN_MOTION":13.21829123,"ECCENTRICITY":0.00023609,"INCLINATION":87.9229,"RA_OF_ASC_NODE":301.6605,"ARG_OF_PERICENTER":86.0182,"MEAN_ANOMALY":274.1222,"EPHEMERIS_TYPE":0,"CLASSIFICATION_TYPE":"U","NORAD_CAT_ID":54647,"ELEMENT_SET_NO":999,"REV_AT_EPOCH":13332,"BSTAR":0.0002162556,"MEAN_MOTION_DOT":1.02e-6,"MEAN_MOTION_DDOT":0},{"OBJECT_NAME":"ONEWEB-0580","OBJECT_ID":"2022-166G","EPOCH":"2025-09-01T03:42:39.943872","MEAN_MOTION":13.21827151,"ECCENTRICITY":0.00022861,"INCLINATION":87.923,"RA_OF_ASC_NODE":301.6639,"ARG_OF_PERICENTER":94.262,"MEAN_ANOMALY":265.8775,"EPHEMERIS_TYPE":0,"CLASSIFICATION_TYPE":"U","NORAD_CAT_ID":54648,"ELEMENT_SET_NO":999,"REV_AT_EPOCH":13336,"BSTAR":-3.4540423e-5,"MEAN_MOTION_DOT":-1.0e-8,"MEAN_MOTION_DDOT":0},{"OBJECT_NAME":"ONEWEB-0582","OBJECT_ID":"2022-166H","EPOCH":"2025-09-01T04:43:57.116640","MEAN_MOTION":13.21829107,"ECCENTRICITY":0.00025091,"INCLINATION":87.9223,"RA_OF_ASC_NODE":301.6506,"ARG_OF_PERICENTER":93.2007,"MEAN_ANOMALY":266.9414,"EPHEMERIS_TYPE":0,"CLASSIFICATION_TYPE":"U","NORAD_CAT_ID":54649,"ELEMENT_SET_NO":999,"REV_AT_EPOCH":13334,"BSTAR":0.000144856,"MEAN_MOTION_DOT":7.3e-7,"MEAN_MOTION_DDOT":0}]
